{
 "generated_at": "2026-06-25T08:23:36Z",
 "sources": [
  {
   "name": "CelesTrak",
   "url": "https://celestrak.org/NORAD/elements/",
   "license": "frei verfügbar; Attribution. Ursprünglich USSPACECOM/Space-Track."
  },
  {
   "name": "GCAT (J. McDowell, planet4589.org)",
   "url": "https://planet4589.org/space/gcat/",
   "license": "CC-BY 4.0"
  }
 ],
 "satellites": [
  {
   "norad": 43010,
   "name": "FENGYUN 3D",
   "intl": "2017-072A",
   "group": "weather",
   "gcat": {
    "class": "C",
    "category": "MET",
    "owner": "NSMC",
    "state": "CN"
   },
   "omm": {
    "OBJECT_NAME": "FENGYUN 3D",
    "OBJECT_ID": "2017-072A",
    "EPOCH": "2026-06-24T06:22:02.773632",
    "MEAN_MOTION": 14.19742043,
    "ECCENTRICITY": 0.0002401,
    "INCLINATION": 99.0129,
    "RA_OF_ASC_NODE": 149.8154,
    "ARG_OF_PERICENTER": 50.8041,
    "MEAN_ANOMALY": 309.3347,
    "EPHEMERIS_TYPE": 0,
    "CLASSIFICATION_TYPE": "U",
    "NORAD_CAT_ID": 43010,
    "ELEMENT_SET_NO": 999,
    "REV_AT_EPOCH": 44599,
    "BSTAR": 0.00024723433,
    "MEAN_MOTION_DOT": 0.00000477,
    "MEAN_MOTION_DDOT": 0
   }
  },
  {
   "norad": 49008,
   "name": "FENGYUN 3E",
   "intl": "2021-062A",
   "group": "weather",
   "gcat": {
    "class": "C",
    "category": "MET",
    "owner": "NSMC",
    "state": "CN"
   },
   "omm": {
    "OBJECT_NAME": "FENGYUN 3E",
    "OBJECT_ID": "2021-062A",
    "EPOCH": "2026-06-24T07:39:09.098784",
    "MEAN_MOTION": 14.19904912,
    "ECCENTRICITY": 0.00028174,
    "INCLINATION": 98.7498,
    "RA_OF_ASC_NODE": 178.6474,
    "ARG_OF_PERICENTER": 73.8457,
    "MEAN_ANOMALY": 286.3029,
    "EPHEMERIS_TYPE": 0,
    "CLASSIFICATION_TYPE": "U",
    "NORAD_CAT_ID": 49008,
    "ELEMENT_SET_NO": 999,
    "REV_AT_EPOCH": 25759,
    "BSTAR": 0.000021683659,
    "MEAN_MOTION_DOT": 2e-8,
    "MEAN_MOTION_DDOT": 0
   }
  },
  {
   "norad": 57490,
   "name": "FENGYUN 3F",
   "intl": "2023-111A",
   "group": "weather",
   "gcat": {
    "class": "C",
    "category": "MET",
    "owner": "NSMC",
    "state": "CN"
   },
   "omm": {
    "OBJECT_NAME": "FENGYUN 3F",
    "OBJECT_ID": "2023-111A",
    "EPOCH": "2026-06-24T07:15:45.131616",
    "MEAN_MOTION": 14.19940126,
    "ECCENTRICITY": 0.00015592,
    "INCLINATION": 98.6834,
    "RA_OF_ASC_NODE": 245.1788,
    "ARG_OF_PERICENTER": 87.9729,
    "MEAN_ANOMALY": 272.1626,
    "EPHEMERIS_TYPE": 0,
    "CLASSIFICATION_TYPE": "U",
    "NORAD_CAT_ID": 57490,
    "ELEMENT_SET_NO": 999,
    "REV_AT_EPOCH": 14987,
    "BSTAR": 0.00003336434,
    "MEAN_MOTION_DOT": 2.7e-7,
    "MEAN_MOTION_DDOT": 0
   }
  },
  {
   "norad": 56232,
   "name": "FENGYUN 3G",
   "intl": "2023-055A",
   "group": "weather",
   "gcat": {
    "class": "C",
    "category": "MET",
    "owner": "NSMC",
    "state": "CN"
   },
   "omm": {
    "OBJECT_NAME": "FENGYUN 3G",
    "OBJECT_ID": "2023-055A",
    "EPOCH": "2026-06-24T05:59:22.898112",
    "MEAN_MOTION": 15.52907569,
    "ECCENTRICITY": 0.00071728,
    "INCLINATION": 49.9932,
    "RA_OF_ASC_NODE": 309.6241,
    "ARG_OF_PERICENTER": 326.0285,
    "MEAN_ANOMALY": 34.0222,
    "EPHEMERIS_TYPE": 0,
    "CLASSIFICATION_TYPE": "U",
    "NORAD_CAT_ID": 56232,
    "ELEMENT_SET_NO": 999,
    "REV_AT_EPOCH": 18110,
    "BSTAR": 0.0003399574,
    "MEAN_MOTION_DOT": 0.00021166,
    "MEAN_MOTION_DDOT": 0
   }
  },
  {
   "norad": 65815,
   "name": "FENGYUN 3H",
   "intl": "2025-219A",
   "group": "weather",
   "gcat": {
    "class": "C",
    "category": "MET",
    "owner": "NSMC",
    "state": "CN"
   },
   "omm": {
    "OBJECT_NAME": "FENGYUN 3H",
    "OBJECT_ID": "2025-219A",
    "EPOCH": "2026-06-24T07:10:40.063584",
    "MEAN_MOTION": 14.19921497,
    "ECCENTRICITY": 0.0001541,
    "INCLINATION": 98.6768,
    "RA_OF_ASC_NODE": 115.9299,
    "ARG_OF_PERICENTER": 71.7657,
    "MEAN_ANOMALY": 288.3688,
    "EPHEMERIS_TYPE": 0,
    "CLASSIFICATION_TYPE": "U",
    "NORAD_CAT_ID": 65815,
    "ELEMENT_SET_NO": 999,
    "REV_AT_EPOCH": 3839,
    "BSTAR": 0.00003562092,
    "MEAN_MOTION_DOT": 3.2e-7,
    "MEAN_MOTION_DDOT": 0
   }
  },
  {
   "norad": 41882,
   "name": "FENGYUN 4A",
   "intl": "2016-077A",
   "group": "weather",
   "gcat": {
    "class": "C",
    "category": "MET",
    "owner": "NSMC",
    "state": "CN"
   },
   "omm": {
    "OBJECT_NAME": "FENGYUN 4A",
    "OBJECT_ID": "2016-077A",
    "EPOCH": "2026-06-23T17:05:02.563008",
    "MEAN_MOTION": 1.0026567,
    "ECCENTRICITY": 0.00083687,
    "INCLINATION": 2.3403,
    "RA_OF_ASC_NODE": 80.2217,
    "ARG_OF_PERICENTER": 152.9998,
    "MEAN_ANOMALY": 58.5685,
    "EPHEMERIS_TYPE": 0,
    "CLASSIFICATION_TYPE": "U",
    "NORAD_CAT_ID": 41882,
    "ELEMENT_SET_NO": 999,
    "REV_AT_EPOCH": 3499,
    "BSTAR": 0,
    "MEAN_MOTION_DOT": -0.00000352,
    "MEAN_MOTION_DDOT": 0
   }
  },
  {
   "norad": 42920,
   "name": "FORMOSAT-5",
   "intl": "2017-049A",
   "group": "resource",
   "gcat": {
    "class": "C",
    "category": "IMG/SCI",
    "owner": "NSPO",
    "state": "TW"
   },
   "omm": {
    "OBJECT_NAME": "FORMOSAT-5",
    "OBJECT_ID": "2017-049A",
    "EPOCH": "2026-06-24T05:24:07.070976",
    "MEAN_MOTION": 14.50900948,
    "ECCENTRICITY": 0.00125219,
    "INCLINATION": 98.2252,
    "RA_OF_ASC_NODE": 250.3785,
    "ARG_OF_PERICENTER": 64.8634,
    "MEAN_ANOMALY": 295.3859,
    "EPHEMERIS_TYPE": 0,
    "CLASSIFICATION_TYPE": "U",
    "NORAD_CAT_ID": 42920,
    "ELEMENT_SET_NO": 999,
    "REV_AT_EPOCH": 46769,
    "BSTAR": 0.000036358043,
    "MEAN_MOTION_DOT": 0.000001,
    "MEAN_MOTION_DDOT": 0
   }
  },
  {
   "norad": 39150,
   "name": "GAOFEN-1",
   "intl": "2013-018A",
   "group": "resource",
   "gcat": {
    "class": "C",
    "category": "IMG",
    "owner": "CNSAS",
    "state": "CN"
   },
   "omm": {
    "OBJECT_NAME": "GAOFEN-1",
    "OBJECT_ID": "2013-018A",
    "EPOCH": "2026-06-24T07:32:16.735776",
    "MEAN_MOTION": 14.76543867,
    "ECCENTRICITY": 0.00157946,
    "INCLINATION": 97.9091,
    "RA_OF_ASC_NODE": 247.2375,
    "ARG_OF_PERICENTER": 241.2447,
    "MEAN_ANOMALY": 118.7177,
    "EPHEMERIS_TYPE": 0,
    "CLASSIFICATION_TYPE": "U",
    "NORAD_CAT_ID": 39150,
    "ELEMENT_SET_NO": 999,
    "REV_AT_EPOCH": 70929,
    "BSTAR": 0.000091598264,
    "MEAN_MOTION_DOT": 0.00000589,
    "MEAN_MOTION_DDOT": 0
   }
  },
  {
   "norad": 43259,
   "name": "GAOFEN-1 02",
   "intl": "2018-031A",
   "group": "resource",
   "gcat": {
    "class": "C",
    "category": "IMG",
    "owner": "CNSAS",
    "state": "CN"
   },
   "omm": {
    "OBJECT_NAME": "GAOFEN-1 02",
    "OBJECT_ID": "2018-031A",
    "EPOCH": "2026-06-24T06:41:38.694912",
    "MEAN_MOTION": 14.76417603,
    "ECCENTRICITY": 0.00031354,
    "INCLINATION": 98.0523,
    "RA_OF_ASC_NODE": 237.7863,
    "ARG_OF_PERICENTER": 13.9205,
    "MEAN_ANOMALY": 346.209,
    "EPHEMERIS_TYPE": 0,
    "CLASSIFICATION_TYPE": "U",
    "NORAD_CAT_ID": 43259,
    "ELEMENT_SET_NO": 999,
    "REV_AT_EPOCH": 44374,
    "BSTAR": 0.00013254349,
    "MEAN_MOTION_DOT": 0.0000087,
    "MEAN_MOTION_DDOT": 0
   }
  },
  {
   "norad": 43260,
   "name": "GAOFEN-1 03",
   "intl": "2018-031B",
   "group": "resource",
   "gcat": {
    "class": "C",
    "category": "IMG",
    "owner": "CNSAS",
    "state": "CN"
   },
   "omm": {
    "OBJECT_NAME": "GAOFEN-1 03",
    "OBJECT_ID": "2018-031B",
    "EPOCH": "2026-06-24T07:47:38.998752",
    "MEAN_MOTION": 14.76433229,
    "ECCENTRICITY": 0.0003715,
    "INCLINATION": 98.0519,
    "RA_OF_ASC_NODE": 237.6898,
    "ARG_OF_PERICENTER": 65.1004,
    "MEAN_ANOMALY": 295.0591,
    "EPHEMERIS_TYPE": 0,
    "CLASSIFICATION_TYPE": "U",
    "NORAD_CAT_ID": 43260,
    "ELEMENT_SET_NO": 999,
    "REV_AT_EPOCH": 44374,
    "BSTAR": 0.00002132,
    "MEAN_MOTION_DOT": 9.7e-7,
    "MEAN_MOTION_DDOT": 0
   }
  }
 ]
}
